NORAD_CAT_ID,OBJECT_NAME,OBJECT_TYPE,EPOCH,MEAN_MOTION,ECCENTRICITY,INCLINATION,RA_OF_ASC_NODE,ARG_OF_PERICENTER,MEAN_ANOMALY,BSTAR,MEAN_MOTION_DOT,MEAN_MOTION_DDOT,TLE_LINE0,TLE_LINE1,TLE_LINE2,SEMIMAJOR_AXIS,PERIOD,APOGEE,PERIGEE,DECAYED
50192.0,STARLINK-3259,PAYLOAD,2022-03-01 06:00:00,15.73146247,0.0003608,53.2167,5.6607,7.4722,98.8921,0.00070687,0.00099561,0.0,0 STARLINK-3259,1 50192U 21125AN  22060.25001157  .00099561  00000-0  70687-3 0  9990,2 50192  53.2167   5.6607 0003608   7.4722  98.8921 15.73146247 11667,6728.0480000000025,91.536,352.341,347.486,0.0
50192.0,STARLINK-3259,PAYLOAD,2022-03-01 14:00:01,15.73235735,0.0003485,53.2169,4.0014,7.5062,187.7984,-0.0050003,-0.00652021,0.0,0 STARLINK-3259,1 50192U 21125AN  22060.58334491 -.00652021  00000-0 -50003-2 0  9993,2 50192  53.2169   4.0014 0003485   7.5062 187.7984 15.73235735 11720,6727.793000000002,91.531,352.00300000000016,347.314,0.0
50192.0,STARLINK-3259,PAYLOAD,2022-03-01 22:00:01,15.73053314,0.0003381,53.2172,2.344,6.416,277.5596,-0.0055438999999999,-0.00712091,0.0,0 STARLINK-3259,1 50192U 21125AN  22060.91668981 -.00712091  00000-0 -55439-2 0  9996,2 50192  53.2172   2.3440 0003381   6.4160 277.5596 15.73053314 11773,6728.313,91.542,352.45300000000015,347.904,0.0
50192.0,STARLINK-3259,PAYLOAD,2022-03-02 14:00:01,15.72034476,0.000335,53.2175,359.0457,5.3518,94.8354,-0.0058247,-0.00715836,0.0,0 STARLINK-3259,1 50192U 21125AN  22061.58334491 -.00715836  00000-0 -58247-2 0  9996,2 50192  53.2175 359.0457 0003350   5.3518  94.8354 15.72034476  3676,6731.22,91.601,355.34,350.83,0.0
50192.0,STARLINK-3259,PAYLOAD,2022-03-02 22:00:00,15.71525508,0.0003694,53.2178,357.3992,358.724,188.6812,-0.0059683,-0.00717706,0.0,0 STARLINK-3259,1 50192U 21125AN  22061.91667824 -.00717706  00000-0 -59683-2 0  9995,2 50192  53.2178 357.3992 0003694 358.7240 188.6812 15.71525508 11931,6732.6730000000025,91.631,357.026,352.051,0.0
50192.0,STARLINK-3259,PAYLOAD,2022-03-03 14:00:01,15.70506191,0.0005212999999999,53.2175,354.1095,305.9823,54.0208,-0.0062296,-0.00718041,0.0,0 STARLINK-3259,1 50192U 21125AN  22062.58334491 -.00718041  00000-0 -62296-2 0  9997,2 50192  53.2175 354.1095 0005213 305.9823  54.0208 15.70506191 12030,6735.5859999999975,91.69,360.963,353.94,0.0
50192.0,STARLINK-3259,PAYLOAD,2022-03-03 22:00:00,15.70005793,0.0005612,53.2175,352.4671,304.5552,140.8244,-0.0065281,-0.00735419,0.0,0 STARLINK-3259,1 50192U 21125AN  22062.91667824 -.00735419  00000-0 -65281-2 0  9998,2 50192  53.2175 352.4671 0005612 304.5552 140.8244 15.70005793  3696,6737.017,91.719,362.663,355.102,0.0
50192.0,STARLINK-3259,PAYLOAD,2022-03-04 14:00:01,15.68968792,0.0001098,53.2176,349.1845,294.9193,319.4537,-0.0065259,-0.00705211,0.0,0 STARLINK-3259,1 50192U 21125AN  22063.58335648 -.00705211  00000-0 -65259-2 0  9990,2 50192  53.2176 349.1845 0001098 294.9193 319.4537 15.68968792 12198,6739.986,91.78,362.591,361.111,0.0
50192.0,STARLINK-3259,PAYLOAD,2022-03-04 22:00:00,15.68464752,8.25e-05,53.2177,347.546,47.5051,290.3418,-0.0067623999999999,-0.00714774,0.0,0 STARLINK-3259,1 50192U 21125AN  22063.91667824 -.00714774  00000-0 -67624-2 0  9993,2 50192  53.2177 347.5460 0000825  47.5051 290.3418 15.68464752  3693,6741.43,91.81,363.851,362.73800000000006,0.0
50192.0,STARLINK-3259,PAYLOAD,2022-03-05 06:00:00,15.67953895,0.0001255,53.2174,345.9095,48.4974,12.2774,-0.0068871,-0.00713021,0.0,0 STARLINK-3259,1 50192U 21125AN  22064.25001157 -.00713021  00000-0 -68871-2 0  9991,2 50192  53.2174 345.9095 0001255  48.4974  12.2774 15.67953895  3740,6742.894,91.839,365.605,363.913,0.0
50192.0,STARLINK-3259,PAYLOAD,2022-03-05 14:00:01,15.67444364,0.0001151,53.2175,344.2708,72.1751,70.9167,-0.0070379999999999,-0.00713494,0.0,0 STARLINK-3259,1 50192U 21125AN  22064.58334491 -.00713494  00000-0 -70380-2 0  9999,2 50192  53.2175 344.2708 0001151  72.1751  70.9167 15.67444364  3671,6744.355,91.869,366.996,365.444,0.0
50192.0,STARLINK-3259,PAYLOAD,2022-03-05 16:00:00,15.67304324,0.0001268,53.2175,343.8629,59.1574,194.4225,-0.0068878,-0.00695806,0.0,0 STARLINK-3259,1 50192U 21125AN  22064.66667824 -.00695806  00000-0 -68878-2 0  9992,2 50192  53.2175 343.8629 0001268  59.1574 194.4225 15.67304324 12369,6744.757,91.877,367.477,365.766,0.0
50192.0,STARLINK-3259,PAYLOAD,2022-03-05 22:00:01,15.66935634,0.0001393,53.2177,342.6362,56.3417,168.5178,-0.0072109999999999,-0.00715833,0.0,0 STARLINK-3259,1 50192U 21125AN  22064.91668981 -.00715833  00000-0 -72110-2 0  9992,2 50192  53.2177 342.6362 0001393  56.3417 168.5178 15.66935634  3717,6745.815,91.899,368.619,366.74,0.0
50192.0,STARLINK-3259,PAYLOAD,2022-03-06 06:00:00,15.66424849,0.0001077,53.2173,341.0033,78.6589,227.2249,-0.0073378999999999,-0.00713573,0.0,0 STARLINK-3259,1 50192U 21125AN  22065.25001157 -.00713573  00000-0 -73379-2 0  9993,2 50192  53.2173 341.0033 0001077  78.6589 227.2249 15.66424849 12451,6747.281,91.929,369.87300000000016,368.419,0.0
50192.0,STARLINK-3259,PAYLOAD,2022-03-06 14:00:01,15.65914186,9.96e-05,53.2174,339.3684,76.1899,310.1738,-0.0074891,-0.00713363,0.0,0 STARLINK-3259,1 50192U 21125AN  22065.58334491 -.00713363  00000-0 -74891-2 0  9996,2 50192  53.2174 339.3684 0000996  76.1899 310.1738 15.65914186  3698,6748.748000000001,91.959,371.285,369.941,0.0
50192.0,STARLINK-3259,PAYLOAD,2022-03-06 22:00:00,15.65406116,0.0001278,53.2174,337.7377,55.4316,50.7952,-0.0076781,-0.00716324,0.0,0 STARLINK-3259,1 50192U 21125AN  22065.91667824 -.00716324  00000-0 -76781-2 0  9992,2 50192  53.2174 337.7377 0001278  55.4316  50.7952 15.65406116  3691,6750.208000000001,91.989,372.936,371.21,0.0
50192.0,STARLINK-3259,PAYLOAD,2022-03-07 06:00:00,15.64894743,0.0001233,53.2172,336.1082,68.06,117.4186,-0.0078021,-0.00713345,0.0,0 STARLINK-3259,1 50192U 21125AN  22066.25001157 -.00713345  00000-0 -78021-2 0  9990,2 50192  53.2172 336.1082 0001233  68.0600 117.4186 15.64894743 12610,6751.678000000001,92.019,374.376,372.711,0.0
50192.0,STARLINK-3259,PAYLOAD,2022-03-07 12:00:00,15.64513112,0.0001190999999999,53.2176,334.8844,71.2492,83.2671,-0.0079405,-0.00714853,0.0,0 STARLINK-3259,1 50192U 21125AN  22066.50001157 -.00714853  00000-0 -79405-2 0  9990,2 50192  53.2176 334.8844 0001191  71.2492  83.2671 15.64513112  3744,6752.776,92.041,375.446,373.837,0.0
50192.0,STARLINK-3259,PAYLOAD,2022-03-07 22:00:00,15.63877229,0.0001233,53.2177,332.8502,55.6031,286.5411,-0.0081776,-0.00717547,0.0,0 STARLINK-3259,1 50192U 21125AN  22066.91667824 -.00717547  00000-0 -81776-2 0  9991,2 50192  53.2177 332.8502 0001233  55.6031 286.5411 15.63877229  3680,6754.607,92.079,377.305,375.639,0.0
50192.0,STARLINK-3259,PAYLOAD,2022-03-08 06:00:02,15.63366282,0.0001293,53.2171,331.2241,46.6747,12.9479,-0.0083137,-0.00715088,0.0,0 STARLINK-3259,1 50192U 21125AN  22067.25002315 -.00715088  00000-0 -83137-2 0  9998,2 50192  53.2171 331.2241 0001293  46.6747  12.9479 15.63366282 12763,6756.078,92.109,378.817,377.07,0.0
50192.0,STARLINK-3259,PAYLOAD,2022-03-08 14:00:01,15.62855361,0.0001235,53.2172,329.5967,59.799,76.5611,-0.0084717999999999,-0.00714199,0.0,0 STARLINK-3259,1 50192U 21125AN  22067.58334491 -.00714199  00000-0 -84718-2 0  9995,2 50192  53.2172 329.5967 0001235  59.7990  76.5611 15.62855361  3708,6757.551,92.139,380.25,378.581,0.0
50192.0,STARLINK-3259,PAYLOAD,2022-03-08 22:00:00,15.62344135,0.0001369,53.2174,327.9737,61.6256,150.9224,-0.008615,-0.00712038,0.0,0 STARLINK-3259,1 50192U 21125AN  22067.91667824 -.00712038  00000-0 -86150-2 0  9993,2 50192  53.2174 327.9737 0001369  61.6256 150.9224 15.62344135  3699,6759.025,92.169,381.815,379.964,0.0
50192.0,STARLINK-3259,PAYLOAD,2022-03-09 06:00:00,15.61837221,0.000121,53.2172,326.3513,62.0474,226.074,-0.0088429,-0.00716113,0.0,0 STARLINK-3259,1 50192U 21125AN  22068.25001157 -.00716113  00000-0 -88429-2 0  9991,2 50192  53.2172 326.3513 0001210  62.0474 226.0740 15.61837221 12920,6760.486999999999,92.199,383.17,381.534,0.0
50192.0,STARLINK-3259,PAYLOAD,2022-03-09 14:00:01,15.61324582,0.0001028,53.2173,324.7276,71.3292,291.7573,-0.0089769,-0.00712833,0.0,0 STARLINK-3259,1 50192U 21125AN  22068.58334491 -.00712833  00000-0 -89769-2 0  9990,2 50192  53.2173 324.7276 0001028  71.3292 291.7573 15.61324582  3718,6761.967,92.229,384.527,383.137,0.0
50192.0,STARLINK-3259,PAYLOAD,2022-03-09 22:00:01,15.60816725,0.0001301,53.2174,323.1086,52.4547,25.0449,-0.0091998,-0.00716036,0.0,0 STARLINK-3259,1 50192U 21125AN  22068.91668981 -.00716036  00000-0 -91998-2 0  9997,2 50192  53.2174 323.1086 0001301  52.4547  25.0449 15.60816725  3699,6763.434,92.259,386.179,384.419,0.0
50192.0,STARLINK-3259,PAYLOAD,2022-03-10 06:00:00,15.60166898,0.0001351999999999,53.2167,321.4908,62.5256,88.7236,-0.006915,-0.00536742,0.0,0 STARLINK-3259,1 50192U 21125AN  22069.25001157 -.00536742  00000-0 -69150-2 0  9990,2 50192  53.2167 321.4908 0001352  62.5256  88.7236 15.60166898 13083,6765.312,92.298,388.091,386.262,0.0
50192.0,STARLINK-3259,PAYLOAD,2022-03-10 14:00:01,15.59796011,0.0001315,53.2173,319.8695,64.0315,160.2653,-0.0095432,-0.0071423999999999,0.0,0 STARLINK-3259,1 50192U 21125AN  22069.58334491 -.00714240  00000-0 -95432-2 0  9999,2 50192  53.2173 319.8695 0001315  64.0315 160.2653 15.59796011  3662,6766.384,92.32,389.139,387.359,0.0
50192.0,STARLINK-3259,PAYLOAD,2022-03-10 20:00:01,15.59412876,0.0001408,53.2176,318.6579,58.7724,129.965,-0.0096674,-0.00713098,0.0,0 STARLINK-3259,1 50192U 21125AN  22069.83334491 -.00713098  00000-0 -96674-2 0  9996,2 50192  53.2176 318.6579 0001408  58.7724 129.9650 15.59412876 13170,6767.4919999999975,92.342,390.31,388.404,0.0
50192.0,STARLINK-3259,PAYLOAD,2022-03-10 22:00:01,15.5928543,0.0001294,53.2175,318.2544,61.2041,235.6683,-0.0097177,-0.00713279,0.0,0 STARLINK-3259,1 50192U 21125AN  22069.91668981 -.00713279  00000-0 -97177-2 0  9999,2 50192  53.2175 318.2544 0001294  61.2041 235.6683 15.59285430  3692,6767.861,92.35,390.602,388.85,0.0
